TROLL                   
1 62658U 25009BB  26068.22522958  .00013174  00000+0  48220-3 0  9994
2 62658  97.3932 150.7169 0001816  59.1850 300.9568 15.28164315118170
STARLINK-34765          
1 66506U 25263X   26068.13252687  .00038280  00000+0  13940-2 0  9996
2 66506  43.0007 353.8452 0001557 282.6332  77.4345 15.27565968 18815
